KUIPER-00027            
1 63740U 25088S   25258.58341435 -.01499621  00000+0 -16274+0 0  9990
2 63740  51.8945 149.8736 0003061 297.2067 195.6365 14.91018623  5279
KUIPER-00028            
1 63741U 25088T   25258.58341435 -.01310457  00000+0 -11890+0 0  9999
2 63741  51.8909 148.2559 0003567 291.5816 245.3632 14.98088944  5816
KUIPER-00029            
1 63742U 25088U   25258.58341435 -.01002394  00000+0 -76970-1 0  9990
2 63742  51.8875 147.1990 0005353 273.4852 324.3368 15.04066589  5633
KUIPER-00030            
1 63743U 25088V   25257.93143469  .00001069  00000+0  16942-3 0  9996
2 63743  51.9015 167.7340 0013087 212.3697 147.6464 14.79915973 21609
KUIPER-00031            
1 63744U 25088W   25258.58341435  .00020120  00000+0  24360-2 0  9993
2 63744  51.8964 151.0022 0003434 208.8891 282.2390 14.83617348  4892
KUIPER-00032            
1 63745U 25088X   25258.10599763  .00014264  00000+0  49411-3 0  9998
2 63745  51.8721 148.3434 0004767 199.9281 160.1517 15.30081437 22604
KUIPER-00033            
1 63746U 25088Y   25258.52141167  .00005081  00000+0  69504-3 0  9998
2 63746  51.8985 181.1834 0003314 345.8437  14.2432 14.79934473 21667
KUIPER-00034            
1 63747U 25088Z   25258.58341435 -.01545330  00000+0 -95392-1 0  9996
2 63747  51.8799 145.2537 0002773 176.4511  32.6293 15.12854775  4902
